AL MUNTHER              
1 63240U 25052AG  26068.64540749  .00017933  00000+0  65015-3 0  9992
2 63240  97.4001 323.9152 0008027 130.7043 229.4895 15.28381521 54798
STARLINK-35555          
1 66425U 25259D   26068.90489913  .00026607  00000+0  97246-3 0  9992
2 66425  43.0001 273.1798 0002471 269.0113  91.0456 15.27594706 19524
